# From MPEC 2018-HA5
103P/Hartley,e,13.6097,219.7484,181.2927,3.475142,0.1521407,0.69369607,302.7127,10/01.0/2022,2000,g  8.5,8.0
# From MPEC 2022-P82
104P/Kowal,e,5.7021,207.2069,227.2529,3.208230,0.1715165,0.66556159,44.9996,10/01.0/2022,2000,g 16.0,4.0
# From MPC109147
105P/Singer Brewster,e,9.1685,192.3968,46.4514,3.469062,0.1525408,0.40890407,231.0870,10/01.0/2022,2000,g 11.5,6.0
# From MPEC 2022-GA9
106P/Schuster,e,19.5368,48.8735,353.7055,3.764743,0.1349277,0.59390870,55.0728,10/01.0/2022,2000,g 14.0,4.8
# From MPEC 2015-M77
107P/Wilson-Harrington,e,2.7993,266.7747,95.4420,2.624722,0.2317817,0.63171906,8.6544,10/01.0/2022,2000,g  9.0,4.0
# From MPEC 2022-P82
108P/Ciffreo,e,11.4364,50.2806,354.4595,3.740143,0.1362611,0.55604348,52.5743,10/01.0/2022,2000,g  8.0,12.0
# From  105, 420
109P/Swift-Tuttle,e,113.8381,139.1548,153.0218,26.18602,0.0073553,0.96261058,80.0675,10/01.0/2022,2000,g  4.0,6.0
# From MPEC 2022-P82
110P/Hartley,e,11.7048,287.5271,167.4551,3.603628,0.1440769,0.31858785,50.0894,10/01.0/2022,2000,g  1.0,12.0
# From MPC 75718
111P/Helin-Roman-Crockett,e,4.2259,89.7564,1.0386,4.150202,0.1165736,0.10668234,55.0251,10/01.0/2022,2000,g  5.0,8.0
# From MPEC 2021-S45
112P/Urata-Niijima,e,24.2103,31.8329,21.4677,3.524701,0.1489432,0.59040416,143.8145,10/01.0/2022,2000,g 14.0,6.0
# From MPEC 2022-ST7
113P/Spitaler,e,5.2899,306.6770,115.5246,3.691070,0.1389875,0.41975000,16.8929,10/01.0/2022,2000,g 13.5,4.0
# From MPEC 2022-K19
114P/Wiseman-Skiff,e,18.2841,271.0296,172.7442,3.543374,0.1477674,0.55523654,146.3970,10/01.0/2022,2000,g 11.5,6.0
# From MPEC 2021-UA9
115P/Maury,e,11.6772,176.0064,121.0010,4.272023,0.1116230,0.51815108,88.5899,10/01.0/2022,2000,g 10.5,6.0
# From MPEC 2022-QD9
116P/Wild,e,3.6034,20.9802,173.2828,3.490140,0.1511610,0.37051151,11.5043,10/01.0/2022,2000,g  2.5,10.0
# From MPEC 2022-ST7
117P/Helin-Roman-Alu,e,8.7039,58.8412,222.9658,4.082761,0.1194739,0.25549509,10.1680,10/01.0/2022,2000,g  2.5,8.0
# From MPEC 2022-ST7
118P/Shoemaker-Levy,e,10.0919,142.0970,314.8337,3.346341,0.1610085,0.45344188,351.2527,10/01.0/2022,2000,g 12.0,4.0
# From MPEC 2022-ST7
119P/Parker-Hartley,e,7.3935,104.5711,322.0642,3.805080,0.1327879,0.38830854,6.6387,10/01.0/2022,2000,g  3.5,8.0
# From MPEC 2022-CN4
120P/Mueller,e,8.4899,358.6717,36.6446,3.964770,0.1248467,0.37484744,63.8654,10/01.0/2022,2000,g 12.0,4.0
# From MPEC 2021-Y10
121P/Shoemaker-Holt,e,20.1651,94.1151,11.5838,4.583611,0.1004367,0.18610118,332.8565,10/01.0/2022,2000,g  6.5,8.0
# From MPC 75718
122P/de Vico,e,85.4528,79.6425,12.9920,17.62373,0.0133216,0.96230412,131.6742,10/01.0/2022,2000,g  7.5,5.2
# From MPEC 2021-F20
123P/West-Hartley,e,15.2850,45.9269,104.1029,3.879552,0.1289827,0.44463475,172.5192,10/01.0/2022,2000,g 12.2,4.0
# From MPEC 2022-K19
124P/Mrkos,e,31.7245,0.1030,185.1903,3.356188,0.1603004,0.49395963,142.8744,10/01.0/2022,2000,g 13.5,2.8
# From MPEC 2015-M77
125P/Spacewatch,e,9.9864,153.1484,87.1979,3.127523,0.1781982,0.51213635,266.7396,10/01.0/2022,2000,g  9.0,4.0
# From MPC 66205
126P/IRAS,e,45.8762,357.8723,356.5872,5.634513,0.0736919,0.69638426,339.5646,10/01.0/2022,2000,g  9.0,4.0
# From MPEC 2022-ST7
127P/Holt-Olmstead,e,14.3011,13.6046,6.2798,3.453805,0.1535527,0.35979059,7.9151,10/01.0/2022,2000,g 11.0,6.0
# From MPC 89014
128P/Shoemaker-Holt,e,4.3700,214.3211,210.2634,4.489042,0.1036272,0.32166740,216.5088,10/01.0/2022,2000,g  8.5,4.0
# From MPEC 2022-K19
129P/Shoemaker-Levy,e,3.4423,184.8631,307.4616,4.287642,0.1110136,0.08472644,353.3193,10/01.0/2022,2000,g 11.0,4.0
# From MPEC 2022-ED3
130P/McNaught-Hughes,e,6.0627,70.1885,246.0901,3.383211,0.1583837,0.46121358,271.0317,10/01.0/2022,2000,g 10.0,6.0
# From MPC102101
131P/Mueller,e,7.3604,214.1465,179.0532,3.679066,0.1396683,0.34459187,187.7830,10/01.0/2022,2000,g 11.0,4.0
# From MPEC 2022-O08
132P/Helin-Roman-Alu,e,5.3827,173.9951,216.3774,3.887131,0.1286057,0.56469911,41.3903,10/01.0/2022,2000,g 11.0,6.0
# From MPC 94676
133P/Elst-Pizarro,e,1.3897,160.0984,131.8987,3.165536,0.1749980,0.15648680,257.2573,10/01.0/2022,2000,g 15.4,2.0
# From MPC 89012
134P/Kowal-Vavrova,e,4.3348,202.0522,18.8570,6.263982,0.0628678,0.58512395,192.5150,10/01.0/2022,2000,g 11.5,4.0
# From MPEC 2022-OB6
135P/Shoemaker-Levy,e,6.0634,213.0266,22.3222,3.800104,0.1330488,0.29472413,23.5029,10/01.0/2022,2000,g  7.0,8.0
# From MPEC 2022-K19
136P/Mueller,e,9.4243,137.4388,225.0546,4.190176,0.1149094,0.29336991,265.2490,10/01.0/2022,2000,g 11.0,4.0
# From MPEC 2022-K19
137P/Shoemaker-Levy,e,4.8570,232.9641,141.1291,4.521216,0.1025230,0.57385220,142.1366,10/01.0/2022,2000,g 11.0,4.0
# From MPEC 2016-U66
138P/Shoemaker-Levy,e,10.0904,309.2971,95.5692,3.620628,0.1430633,0.53121513,178.2949,10/01.0/2022,2000,g 15.0,6.0
# From MPEC 2020-HN5
139P/Vaisala-Oterma,e,2.3362,242.1418,165.7426,4.519316,0.1025876,0.24771203,179.9945,10/01.0/2022,2000,g  9.5,4.0
# From MPEC 2015-E14
140P/Bowell-Skiff,e,3.8454,343.2254,172.7520,6.417854,0.0606205,0.69319373,158.5483,10/01.0/2022,2000,g 11.5,6.0
# From MPEC 2022-K19
141P/Machholz,e,13.9517,241.8038,153.5881,3.057558,0.1843495,0.73599182,120.4813,10/01.0/2022,2000,g 12.0,12.0
# From MPEC 2022-SU8
141P-I/Machholz,e,13.9515,241.8085,153.5624,3.048209,0.1851982,0.73519903,121.1177,10/01.0/2022,2000,g 17.5,4.0
# From MPEC 2021-Y10
142P/Ge-Wang,e,12.2514,175.9319,173.9999,4.999550,0.0881673,0.49715854,44.6370,10/01.0/2022,2000,g  8.5,6.0
# From MPEC 2022-ST7
143P/Kowal-Mrkos,e,4.7121,245.0264,320.3252,4.274507,0.1115257,0.41255936,179.5919,10/01.0/2022,2000,g 13.5,2.0
# From MPC104795
144P/Kushida,e,3.9304,243.0080,216.3568,3.827432,0.1316263,0.63514048,296.6012,10/01.0/2022,2000,g  8.5,8.0
# From MPC108598
145P/Shoemaker-Levy,e,11.2796,26.7956,10.2576,4.136217,0.1171653,0.54224561,217.2092,10/01.0/2022,2000,g 13.5,4.0
# From MPC100284
146P/Shoemaker-LINEAR,e,23.1161,53.3768,317.0118,4.029914,0.1218317,0.64746184,277.8334,10/01.0/2022,2000,g 15.0,4.0
# From MPC 75720
147P/Kushida-Muramatsu,e,2.3082,91.8696,348.1493,4.034018,0.1216458,0.21766508,307.6630,10/01.0/2022,2000,g 14.0,4.0
# From MPEC 2021-S45
148P/Anderson-LINEAR,e,3.6580,89.2063,8.0375,3.618323,0.1432000,0.54987632,15.6532,10/01.0/2022,2000,g 16.0,2.0
# From MPC 75720
149P/Mueller,e,34.3315,144.0089,31.0088,4.132154,0.1173382,0.32264442,177.6137,10/01.0/2022,2000,g  8.0,8.0
# From MPEC 2022-ST7
150P/LONEOS,e,18.5198,272.1635,245.8452,3.876352,0.1291425,0.54873439,291.7643,10/01.0/2022,2000,g 13.5,4.0
# From MPEC 2022-K19
151P/Helin,e,4.7282,143.1538,216.0976,5.762989,0.0712414,0.57382023,181.2932,10/01.0/2022,2000,g 10.0,6.0
# From MPEC 2022-ST7
152P/Helin-Lawrence,e,9.8802,91.8570,163.9915,4.476672,0.1040570,0.30858759,27.0653,10/01.0/2022,2000,g 11.5,4.0
# From MPC 46101
153P/Ikeya-Zhang,e,28.0789,93.4022,34.7819,50.40483,0.0027542,0.98972259,0.0000,03/02.8266/2002,2000,g  9.0,4.0
# From MPEC 2022-K19
154P/Brewington,e,17.6322,343.0340,47.8937,4.798478,0.0937667,0.67607051,301.9140,10/01.0/2022,2000,g  2.5,12.0
# From MPEC 2021-F20
155P/Shoemaker,e,6.4001,97.1747,14.5622,6.570588,0.0585191,0.72641022,61.5033,10/01.0/2022,2000,g 13.8,4.0
# From MPEC 2022-GA9
156P/Russell-LINEAR,e,17.2682,35.3450,0.4656,3.461922,0.1530129,0.61509703,104.3433,10/01.0/2022,2000,g 15.5,2.0
# From MPEC 2022-ST7
157P/Tritton,e,12.4208,287.5473,155.0578,3.545528,0.1476328,0.55667971,3.1293,10/01.0/2022,2000,g 10.0,4.0
# From MPEC 2022-ST7
158P/Kowal-LINEAR,e,7.6354,134.0826,187.0349,5.272843,0.0814023,0.08689996,29.6365,10/01.0/2022,2000,g  9.0,4.0
# From MPEC 2021-N06
159P/LONEOS,e,23.4793,54.9501,4.5655,5.852673,0.0696102,0.38239276,110.8252,10/01.0/2022,2000,g 10.0,4.0
# From MPEC 2022-K19
160P/LINEAR,e,15.6141,333.3609,12.7658,3.776357,0.1343057,0.52619411,138.7861,10/01.0/2022,2000,g 15.5,2.0
# From MPC 75721
161P/Hartley-IRAS,e,95.8023,1.5842,47.0137,7.718692,0.0459609,0.83532108,290.1686,10/01.0/2022,2000,g  8.5,6.0
# From MPEC 2022-M21
162P/SidingSpring,e,27.5625,30.8900,357.1775,3.091969,0.1812806,0.58313314,120.0088,10/01.0/2022,2000,g 12.0,4.0
# From MPEC 2021-S45
163P/NEAT,e,12.7136,102.0706,349.5589,3.765304,0.1348975,0.45238720,155.5033,10/01.0/2022,2000,g 14.5,4.0
# From MPEC 2021-F20
164P/Christensen,e,16.2664,88.2692,325.8574,3.654917,0.1410548,0.54078691,223.2411,10/01.0/2022,2000,g 11.0,4.0
# From MPC 75721
165P/LINEAR,e,15.8943,0.8711,125.8218,17.84709,0.0130723,0.61609932,106.8348,10/01.0/2022,2000,g 11.5,2.0
# From MPC 75722
166P/NEAT,e,15.3814,64.3671,321.5996,13.81472,0.0191951,0.38453577,142.5828,10/01.0/2022,2000,g  5.5,4.0
# From MPC 75722
167P/CINEOS,e,19.1081,295.7161,344.7715,16.24502,0.0150530,0.27033843,117.6600,10/01.0/2022,2000,g  9.5,2.0
# From MPC102101
168P/Hergenrother,e,21.6246,355.4516,15.0209,3.582387,0.1453602,0.62119875,167.4613,10/01.0/2022,2000,g 15.5,4.0
# From MPEC 2022-O01
169P/NEAT,e,11.2987,176.1011,218.0475,2.602110,0.2348095,0.76832727,19.5638,10/01.0/2022,2000,g 16.0,2.0
# From MPEC 2022-ST7
170P/Christensen,e,10.1235,142.9244,225.4774,4.203891,0.1143476,0.30458173,337.0089,10/01.0/2022,2000,g 12.0,4.0
# From MPC102102
171P/Spahr,e,21.9429,101.6883,347.0457,3.554126,0.1470974,0.50199341,199.5741,10/01.0/2022,2000,g 13.5,4.0
# From MPEC 2022-C56
172P/Yeung,e,11.2255,30.8773,209.3064,4.216234,0.1138458,0.20468796,231.2816,10/01.0/2022,2000,g 13.0,4.0
# From MPEC 2022-K19
173P/Mueller,e,16.4900,100.3894,29.1493,5.708636,0.0722613,0.26132767,20.8535,10/01.0/2022,2000,g  7.5,4.0
# From MPC 92985
174P/Echeclus,e,4.3439,173.1890,163.3419,10.73882,0.0280072,0.45717308,76.0213,10/01.0/2022,2000,g  9.4,2.0
# From MPC114608
175P/Hergenrother,e,4.9826,113.1747,72.7105,3.618186,0.1432082,0.39949448,157.7658,10/01.0/2022,2000,g 14.0,4.0
# From MPC 89015
176P/LINEAR,e,0.2324,346.0536,34.2928,3.199293,0.1722357,0.19339875,351.1665,10/01.0/2022,2000,g 15.1,2.0
# From MPEC 2020-L06
177P/Barnard,e,31.1515,271.9924,60.5154,24.47846,0.0081382,0.95524444,47.7623,10/01.0/2022,2000,g 15.0,4.0
# From MPEC 2021-F20
